{
    "links": {
        "self": "http://www.neowsapp.com/rest/v1/neo/3557827?api_key=iIulBulltgU6a56xZRHN4H3l9WmuAYTsLGpBGhQ2"
    },
    "id": "3557827",
    "neo_reference_id": "3557827",
    "name": "(2011 DQ)",
    "designation": "2011 DQ",
    "nasa_jpl_url": "http://ssd.jpl.nasa.gov/sbdb.cgi?sstr=3557827",
    "absolute_magnitude_h": 26.2,
    "estimated_diameter": {
        "kilometers": {
            "estimated_diameter_min": 0.0152951935,
            "estimated_diameter_max": 0.0342010925
        },
        "meters": {
            "estimated_diameter_min": 15.2951935344,
            "estimated_diameter_max": 34.201092472
        },
        "miles": {
            "estimated_diameter_min": 0.0095039897,
            "estimated_diameter_max": 0.021251567
        },
        "feet": {
            "estimated_diameter_min": 50.1810827555,
            "estimated_diameter_max": 112.2083122258
        }
    },
    "is_potentially_hazardous_asteroid": false,
    "close_approach_data": [
        {
            "close_approach_date": "1910-03-22",
            "close_approach_date_full": "1910-Mar-22 08:44",
            "epoch_date_close_approach": -1886512560000,
            "relative_velocity": {
                "kilometers_per_second": "5.8819751098",
                "kilometers_per_hour": "21175.1103953006",
                "miles_per_hour": "13157.3901231244"
            },
            "miss_distance": {
                "astronomical": "0.0661076527",
                "lunar": "25.7158769003",
                "kilometers": "9889564.034619749",
                "miles": "6145090.1394965762"
            },
            "orbiting_body": "Earth"
        },
        {
            "close_approach_date": "1912-01-14",
            "close_approach_date_full": "1912-Jan-14 15:05",
            "epoch_date_close_approach": -1829206500000,
            "relative_velocity": {
                "kilometers_per_second": "19.4979230827",
                "kilometers_per_hour": "70192.5230975792",
                "miles_per_hour": "43614.9041436042"
            },
            "miss_distance": {
                "astronomical": "0.4912649834",
                "lunar": "191.1020785426",
                "kilometers": "73492195.122225358",
                "miles": "45665932.4915236204"
            },
            "orbiting_body": "Earth"
        },
        {
            "close_approach_date": "1969-04-29",
            "close_approach_date_full": "1969-Apr-29 13:43",
            "epoch_date_close_approach": -21291420000,
            "relative_velocity": {
                "kilometers_per_second": "14.5510031996",
                "kilometers_per_hour": "52383.6115186932",
                "miles_per_hour": "32549.139057268"
            },
            "miss_distance": {
                "astronomical": "0.3405215114",
                "lunar": "132.4628679346",
                "kilometers": "50941292.794620718",
                "miles": "31653451.5525251884"
            },
            "orbiting_body": "Earth"
        },
        {
            "close_approach_date": "1971-02-01",
            "close_approach_date_full": "1971-Feb-01 23:22",
            "epoch_date_close_approach": 34298520000,
            "relative_velocity": {
                "kilometers_per_second": "10.6641090082",
                "kilometers_per_hour": "38390.7924295466",
                "miles_per_hour": "23854.5454404591"
            },
            "miss_distance": {
                "astronomical": "0.1930383782",
                "lunar": "75.0919291198",
                "kilometers": "28878130.206974434",
                "miles": "17944038.0345138292"
            },
            "orbiting_body": "Earth"
        },
        {
            "close_approach_date": "2011-02-26",
            "close_approach_date_full": "2011-Feb-26 19:57",
            "epoch_date_close_approach": 1298750220000,
            "relative_velocity": {
                "kilometers_per_second": "5.7222498544",
                "kilometers_per_hour": "20600.0994758321",
                "miles_per_hour": "12800.1006993025"
            },
            "miss_distance": {
                "astronomical": "0.0248374383",
                "lunar": "9.6617634987",
                "kilometers": "3715627.865936421",
                "miles": "2308784.0961517698"
            },
            "orbiting_body": "Earth"
        }
    ],
    "orbital_data": {
        "orbit_id": "8",
        "orbit_determination_date": "2019-07-17 06:09:30",
        "first_observation_date": "2011-02-23",
        "last_observation_date": "2011-02-26",
        "data_arc_in_days": 3,
        "observations_used": 28,
        "orbit_uncertainty": "7",
        "minimum_orbit_intersection": ".0240148",
        "jupiter_tisserand_invariant": "4.403",
        "epoch_osculation": "2459000.5",
        "eccentricity": ".3430984066196706",
        "semi_major_axis": "1.536097592081781",
        "inclination": "5.81347658186043",
        "ascending_node_longitude": "333.4204766535663",
        "orbital_period": "695.3871152578512",
        "perihelion_distance": "1.009064955826209",
        "perihelion_argument": "195.0899854018382",
        "aphelion_distance": "2.063130228337352",
        "perihelion_time": "2459105.459257603894",
        "mean_anomaly": "305.6628805620147",
        "mean_motion": ".5176972539482719",
        "equinox": "J2000",
        "orbit_class": {
            "orbit_class_type": "APO",
            "orbit_class_description": "Near-Earth asteroid orbits which cross the Earth’s orbit similar to that of 1862 Apollo",
            "orbit_class_range": "a (semi-major axis) > 1.0 AU; q (perihelion) < 1.017 AU"
        }
    },
    "is_sentry_object": false
}